{
    "links": {
        "self": "http://www.neowsapp.com/rest/v1/neo/3726652?api_key=iIulBulltgU6a56xZRHN4H3l9WmuAYTsLGpBGhQ2"
    },
    "id": "3726652",
    "neo_reference_id": "3726652",
    "name": "(2015 QX8)",
    "designation": "2015 QX8",
    "nasa_jpl_url": "http://ssd.jpl.nasa.gov/sbdb.cgi?sstr=3726652",
    "absolute_magnitude_h": 24.4,
    "estimated_diameter": {
        "kilometers": {
            "estimated_diameter_min": 0.0350392641,
            "estimated_diameter_max": 0.0783501764
        },
        "meters": {
            "estimated_diameter_min": 35.0392641108,
            "estimated_diameter_max": 78.3501764334
        },
        "miles": {
            "estimated_diameter_min": 0.0217723826,
            "estimated_diameter_max": 0.0486845275
        },
        "feet": {
            "estimated_diameter_min": 114.9582192654,
            "estimated_diameter_max": 257.0543928497
        }
    },
    "is_potentially_hazardous_asteroid": false,
    "close_approach_data": [
        {
            "close_approach_date": "2015-09-04",
            "close_approach_date_full": "2015-Sep-04 09:06",
            "epoch_date_close_approach": 1441357560000,
            "relative_velocity": {
                "kilometers_per_second": "10.7639547988",
                "kilometers_per_hour": "38750.2372756102",
                "miles_per_hour": "24077.8904893923"
            },
            "miss_distance": {
                "astronomical": "0.0522371486",
                "lunar": "20.3202508054",
                "kilometers": "7814566.165433482",
                "miles": "4855746.2512547716"
            },
            "orbiting_body": "Earth"
        },
        {
            "close_approach_date": "2016-01-16",
            "close_approach_date_full": "2016-Jan-16 15:31",
            "epoch_date_close_approach": 1452958260000,
            "relative_velocity": {
                "kilometers_per_second": "5.343978425",
                "kilometers_per_hour": "19238.3223300124",
                "miles_per_hour": "11953.9453388902"
            },
            "miss_distance": {
                "astronomical": "0.4488141211",
                "lunar": "174.5886931079",
                "kilometers": "67141636.542482057",
                "miles": "41719878.3710321066"
            },
            "orbiting_body": "Earth"
        }
    ],
    "orbital_data": {
        "orbit_id": "9",
        "orbit_determination_date": "2017-04-06 08:32:16",
        "first_observation_date": "2015-08-21",
        "last_observation_date": "2015-09-04",
        "data_arc_in_days": 14,
        "observations_used": 23,
        "orbit_uncertainty": "9",
        "minimum_orbit_intersection": ".0258976",
        "jupiter_tisserand_invariant": "4.351",
        "epoch_osculation": "2457257.5",
        "eccentricity": ".411995488645528",
        "semi_major_axis": "1.546561730116051",
        "inclination": "7.021943097254498",
        "ascending_node_longitude": "155.3129416711999",
        "orbital_period": "702.5048320741151",
        "perihelion_distance": ".9093852743964157",
        "perihelion_argument": "241.5923716437158",
        "aphelion_distance": "2.183738185835687",
        "perihelion_time": "2457312.658139891800",
        "mean_anomaly": "331.7341013834435",
        "mean_motion": ".5124519911658338",
        "equinox": "J2000",
        "orbit_class": {
            "orbit_class_type": "APO",
            "orbit_class_description": "Near-Earth asteroid orbits which cross the Earth’s orbit similar to that of 1862 Apollo",
            "orbit_class_range": "a (semi-major axis) > 1.0 AU; q (perihelion) < 1.017 AU"
        }
    },
    "is_sentry_object": false
}